SENTINEL-6              
1 46984U 20086A   23352.93931915 -.00000052  00000+0  37895-4 0  9995
2 46984  66.0401 227.7230 0007646 269.7940  90.2199 12.80929043143616
